TERA_L_00004008-07
1 80744U 22902BJ  26070.40777778  .00000000  00000+0  00000-0 0  9999
2 80744  55.0000 252.0000 0000000   0.0000  36.0000  5.03557230    14
TERA_L_00004008-08
1 80745U 26776Y   26070.40777778  .00000000  00000+0  00000-0 0  9993
2 80745  55.0000 252.0000 0000000   0.0000  81.0000  5.03557230    15
TERA_L_00004009-01
1 80746U 24052JA  26070.40777778  .00000000  00000+0  00000-0 0  9999
2 80746  55.0000 288.0000 0000000   0.0000 144.0000  5.03557230    15
TERA_L_00004009-02
1 80747U 25020YC  26070.40777778  .00000000  00000+0  00000-0 0  9996
2 80747  55.0000 288.0000 0000000   0.0000 189.0000  5.03557230    15
TERA_L_00004009-03
1 80748U 26652MT  26070.40777778  .00000000  00000+0  00000-0 0  9999
2 80748  55.0000 288.0000 0000000   0.0000 234.0000  5.03557230    17
TERA_L_00004009-04
1 80749U 26709RJ  26070.40777778  .00000000  00000+0  00000-0 0  9993
2 80749  55.0000 288.0000 0000000   0.0000 279.0000  5.03557230    17
TERA_L_00004009-05
1 80750U 26212KE  26070.40777778  .00000000  00000+0  00000-0 0  9994
2 80750  55.0000 288.0000 0000000   0.0000 324.0000  5.03557230    10
TERA_L_00004009-06
1 80751U 25758DV  26070.40777778  .00000000  00000+0  00000-0 0  9999
2 80751  55.0000 288.0000 0000000   0.0000   9.0000  5.03557230    11
TERA_L_00004009-07
1 80752U 22791WF  26070.40777778  .00000000  00000+0  00000-0 0  9994
2 80752  55.0000 288.0000 0000000   0.0000  54.0000  5.03557230    12
TERA_L_00004009-08
1 80753U 24369XD  26070.40777778  .00000000  00000+0  00000-0 0  9998
2 80753  55.0000 288.0000 0000000   0.0000  99.0000  5.03557230    12
TERA_L_00004010-01
1 80754U 22817XJ  26070.40777778  .00000000  00000+0  00000-0 0  9995
2 80754  55.0000 324.0000 0000000   0.0000 162.0000  5.03557230    15
TERA_L_00004010-02
1 80755U 26193XO  26070.40777778  .00000000  00000+0  00000-0 0  9997
2 80755  55.0000 324.0000 0000000   0.0000 207.0000  5.03557230    16
TERA_L_00004010-03
1 80756U 26419Z   26070.40777778  .00000000  00000+0  00000-0 0  9999
2 80756  55.0000 324.0000 0000000   0.0000 252.0000  5.03557230    17
TERA_L_00004010-04
1 80757U 26101RE  26070.40777778  .00000000  00000+0  00000-0 0  9998
2 80757  55.0000 324.0000 0000000   0.0000 297.0000  5.03557230    17
TERA_L_00004010-05
1 80758U 26695FN  26070.40777778  .00000000  00000+0  00000-0 0  9997
2 80758  55.0000 324.0000 0000000   0.0000 342.0000  5.03557230    19
TERA_L_00004010-06
1 80759U 26571QB  26070.40777778  .00000000  00000+0  00000-0 0  9991
2 80759  55.0000 324.0000 0000000   0.0000  27.0000  5.03557230    10
TERA_L_00004010-07
1 80760U 23725SY  26070.40777778  .00000000  00000+0  00000-0 0  9991
2 80760  55.0000 324.0000 0000000   0.0000  72.0000  5.03557230    12
TERA_L_00004010-08
1 80761U 22609GD  26070.40777778  .00000000  00000+0  00000-0 0  9992
2 80761  55.0000 324.0000 0000000   0.0000 117.0000  5.03557230    13
